{"type":"FeatureCollection","features":[{"type":"Feature","id":2,"name":"Coast","properties":{"cartodb_id":2,"id":2,"engtype_1":"Province","shape_leng":31.0029131994,"shape_area":6.81337612327},"geometry":{"type":"MultiPolygon","coordinates":[[[[39.2696,-4.6529],[39.2946,-4.6621],[39.2768,-4.6707],[39.2696,-4.6529]]],[[[39.3604,-4.6529],[39.4004,-4.6576],[39.4068,-4.6746],[39.3482,-4.6668],[39.3604,-4.6529]]],[[[39.5974,-4.0499],[39.6035,-4.0526],[39.5893,-4.0587],[39.5974,-4.0499]]],[[[40.8776,-2.2451],[40.8979,-2.2554],[40.9165,-2.2965],[40.8663,-2.3029],[40.8171,-2.3374],[40.8179,-2.2812],[40.8474,-2.2549],[40.8776,-2.2451]]],[[[41.0899,-2.0418],[41.1357,-2.0554],[41.144,-2.0715],[41.1662,-2.081],[41.171,-2.0929],[41.159,-2.0976],[41.1732,-2.106],[41.131,-2.1324],[41.1251,-2.1274],[41.1357,-2.1168],[41.1182,-2.1032],[41.1279,-2.114],[41.114,-2.1235],[41.1113,-2.1404],[41.0926,-2.1437],[41.0785,-2.1324],[41.0454,-2.1421],[41.0621,-2.1585],[41.0563,-2.1668],[41.0424,-2.1615],[41.0432,-2.1451],[41.0351,-2.1471],[41.0396,-2.1279],[41.0257,-2.1493],[41.0076,-2.1543],[40.9993,-2.1474],[41.0054,-2.1601],[40.9921,-2.1582],[40.9943,-2.1676],[41.0163,-2.2026],[40.9996,-2.2093],[40.9799,-2.1724],[40.9787,-2.186],[40.9679,-2.1851],[40.9749,-2.1776],[40.9604,-2.1504],[40.9643,-2.1399],[40.9724,-2.1424],[40.9718,-2.111],[40.9996,-2.0924],[41.0421,-2.081],[41.0899,-2.0418]]],[[[41.1374,-2.0407],[41.1501,-2.0513],[41.1282,-2.0435],[41.1374,-2.0407]]],[[[41.1924,-2.0024],[41.1871,-2.0313],[41.1404,-2.021],[41.146,-2.0104],[41.1732,-2.0143],[41.1924,-2.0024]]],[[[41.2015,-2.0004],[41.2157,-2.0151],[41.2115,-2.0274],[41.1968,-2.024],[41.2015,-2.0004]]],[[[41.2751,-1.9824],[41.279,-1.9954],[41.2704,-1.9918],[41.2751,-1.9824]]],[[[41.266,-1.9638],[41.2732,-1.9763],[41.2682,-1.9874],[41.2596,-1.9801],[41.2568,-1.9876],[41.2657,-1.9882],[41.2562,-1.9935],[41.2743,-1.9976],[41.3076,-1.9718],[41.2579,-2.0335],[41.2368,-2.0471],[41.2676,-2.0093],[41.2471,-1.9888],[41.2474,-1.974],[41.266,-1.9638]]],[[[38.6272,-0.046],[38.6767,-0.042],[38.7484,-0.0625],[38.7478,-0.0493],[38.7628,-0.047],[38.857,-0.069],[38.8997,-0.0669],[38.925,-0.1011],[38.9736,-0.0936],[39.0139,-0.0636],[39.0644,-0.0565],[39.0835,-0.0631],[39.1367,-0.1273],[39.16,-0.1392],[39.1771,-0.1268],[39.1655,-0.1107],[39.2361,-0.115],[39.2368,-0.1425],[39.261,-0.1476],[39.2758,-0.1431],[39.2781,-0.1169],[39.3112,-0.1149],[39.3966,-0.1661],[39.4349,-0.1719],[39.4688,-0.196],[39.6037,-0.3254],[39.5864,-0.3425],[39.6024,-0.3554],[39.6206,-0.4366],[39.6388,-0.4634],[39.6416,-0.5021],[39.6709,-0.5471],[39.6788,-0.5523],[39.7027,-0.5378],[39.7163,-0.5633],[39.7265,-0.5639],[39.7087,-0.591],[39.7716,-0.6151],[39.7865,-0.6443],[39.8087,-0.64],[39.83,-0.6796],[39.8844,-0.8479],[39.8902,-0.9058],[39.9165,-0.9584],[39.9002,-0.9672],[39.9053,-1.0132],[39.9253,-1.0256],[39.9626,-1.1125],[39.9832,-1.1317],[40.0127,-1.1906],[40.0008,-1.1979],[40.0267,-1.2603],[40.0365,-1.2601],[40.0307,-1.3195],[40.06,-1.4196],[40.0491,-1.424],[40.0636,-1.5],[40.0753,-1.498],[40.0856,-1.5093],[40.1109,-1.5694],[40.138,-1.599],[40.1411,-1.7027],[40.153,-1.7266],[40.1414,-1.7821],[40.1717,-1.8705],[40.17,-1.9475],[40.183,-1.9815],[40.1784,-1.9981],[40.1972,-2.0363],[40.4789,-1.8921],[40.4982,-1.8852],[40.5126,-1.9032],[40.9179,-1.7119],[40.9854,-1.6994],[40.9913,-1.6875],[41.1726,-1.6703],[41.1726,-1.6843],[41.5715,-1.6469],[41.459,-1.7801],[41.4863,-1.7668],[41.4804,-1.7988],[41.466,-1.8001],[41.4651,-1.7915],[41.4532,-1.8026],[41.4562,-1.7876],[41.4368,-1.8062],[41.4471,-1.8124],[41.4293,-1.8088],[41.4368,-1.8207],[41.4121,-1.841],[41.4257,-1.8407],[41.4243,-1.849],[41.4304,-1.8382],[41.4387,-1.8415],[41.3874,-1.8913],[41.4113,-1.8549],[41.4043,-1.8587],[41.3535,-1.9224],[41.341,-1.9207],[41.3465,-1.9287],[41.3174,-1.9524],[41.3168,-1.9624],[41.3043,-1.9599],[41.2807,-1.9871],[41.2615,-1.9546],[41.2579,-1.9663],[41.2365,-1.9693],[41.2343,-1.9612],[41.2301,-1.9721],[41.2243,-1.9451],[41.2357,-1.9401],[41.2232,-1.9396],[41.2193,-1.9149],[41.2154,-1.9529],[41.204,-1.9346],[41.1965,-1.9396],[41.1943,-1.9271],[41.1946,-1.9393],[41.1796,-1.9326],[41.1674,-1.9488],[41.179,-1.9354],[41.2001,-1.9474],[41.1882,-1.9565],[41.2032,-1.954],[41.189,-1.9668],[41.1968,-1.9712],[41.1932,-1.9874],[41.1718,-1.9799],[41.1832,-1.981],[41.1918,-1.9963],[41.1721,-2.0043],[41.1446,-1.9904],[41.1435,-1.9982],[41.1257,-1.9979],[41.1251,-1.9801],[41.1037,-2.0021],[41.0962,-1.9904],[41.0996,-2.0057],[41.0835,-2.0137],[41.076,-1.9974],[41.0782,-2.0182],[41.0449,-2.0329],[41.0343,-2.0538],[41.0124,-2.056],[40.9899,-2.0415],[40.979,-2.0199],[40.9915,-1.9799],[40.9857,-1.9482],[41.0174,-1.909],[41.0032,-1.9082],[40.9904,-1.9301],[40.9735,-1.939],[40.9751,-1.9893],[40.9599,-2.0171],[40.9807,-2.0662],[40.9471,-2.0849],[40.9335,-2.0779],[40.939,-2.0593],[40.9188,-2.0335],[40.921,-1.9988],[40.8788,-1.9921],[40.8629,-1.9735],[40.829,-1.9701],[40.8076,-1.9574],[40.8915,-2.0082],[40.8862,-2.0151],[40.8788,-2.0065],[40.8815,-2.0146],[40.891,-2.0162],[40.8982,-2.0046],[40.906,-2.0101],[40.9132,-2.0657],[40.8974,-2.0651],[40.8971,-2.0479],[40.8924,-2.0688],[40.9074,-2.0699],[40.9165,-2.0937],[40.9215,-2.2107],[40.9368,-2.2199],[40.9301,-2.2296],[40.9429,-2.2404],[40.941,-2.2215],[40.9632,-2.2235],[40.969,-2.2368],[40.9665,-2.2235],[40.976,-2.2262],[40.9904,-2.2618],[40.9582,-2.3099],[40.9313,-2.3229],[40.9129,-2.314],[40.9229,-2.2887],[40.9518,-2.2885],[40.9274,-2.2854],[40.9071,-2.2574],[40.9001,-2.236],[40.9087,-2.2196],[40.9021,-2.2251],[40.8855,-2.2156],[40.891,-2.2426],[40.8479,-2.2524],[40.8054,-2.2912],[40.7982,-2.2754],[40.821,-2.2465],[40.8087,-2.2485],[40.8113,-2.2576],[40.7932,-2.2804],[40.8085,-2.3104],[40.7762,-2.2996],[40.7818,-2.2635],[40.7629,-2.2643],[40.7465,-2.2515],[40.7612,-2.2671],[40.7779,-2.2657],[40.7713,-2.2982],[40.7612,-2.2882],[40.7604,-2.2949],[40.7988,-2.3171],[40.7982,-2.3285],[40.7796,-2.3296],[40.741,-2.2993],[40.7238,-2.2974],[40.7713,-2.326],[40.7815,-2.3576],[40.7788,-2.3351],[40.8182,-2.359],[40.8262,-2.3743],[40.8249,-2.3929],[40.7807,-2.4282],[40.7704,-2.4543],[40.7432,-2.4546],[40.7062,-2.4757],[40.6099,-2.561],[40.5432,-2.541],[40.496,-2.5151],[40.4813,-2.5215],[40.5015,-2.5174],[40.5326,-2.5393],[40.5051,-2.5329],[40.4571,-2.5418],[40.3468,-2.5915],[40.3507,-2.5732],[40.339,-2.5968],[40.2604,-2.6479],[40.1987,-2.7346],[40.1851,-2.7274],[40.1935,-2.7454],[40.176,-2.7849],[40.1868,-2.7771],[40.1615,-2.956],[40.1696,-2.9649],[40.1749,-2.9601],[40.1904,-2.9863],[40.1771,-2.9807],[40.1696,-2.9988],[40.1801,-2.9871],[40.1879,-2.9954],[40.2124,-2.9938],[40.2376,-2.9779],[40.2415,-2.9896],[40.2015,-3.0104],[40.1954,-3.0307],[40.174,-3.0415],[40.1732,-3.0693],[40.156,-3.0832],[40.1637,-3.1318],[40.1474,-3.1665],[40.136,-3.1618],[40.1407,-3.1715],[40.121,-3.2021],[40.1326,-3.2557],[40.1263,-3.2793],[40.1135,-3.299],[40.0068,-3.3615],[39.9765,-3.3901],[39.9696,-3.3876],[39.9657,-3.3443],[39.9879,-3.3474],[39.9838,-3.3321],[39.9915,-3.3218],[39.9693,-3.3257],[39.9571,-3.3443],[39.966,-3.3535],[39.9615,-3.3751],[39.9693,-3.3724],[39.9679,-3.3801],[39.9574,-3.3754],[39.9696,-3.4062],[39.8715,-3.6315],[39.8451,-3.6354],[39.8212,-3.6096],[39.8118,-3.6218],[39.8082,-3.611],[39.7954,-3.6085],[39.8115,-3.6237],[39.8026,-3.636],[39.8101,-3.6471],[39.8371,-3.6335],[39.8638,-3.6432],[39.8707,-3.6979],[39.8301,-3.8235],[39.7754,-3.9432],[39.7529,-3.959],[39.764,-3.9626],[39.7287,-4.0032],[39.7299,-4.0243],[39.7018,-4.0604],[39.6874,-4.0654],[39.6818,-4.0446],[39.6738,-4.0432],[39.6768,-4.0324],[39.6437,-4.0163],[39.6518,-4.0318],[39.6387,-4.0393],[39.6585,-4.0296],[39.6754,-4.0365],[39.6832,-4.0693],[39.6715,-4.0801],[39.6476,-4.0613],[39.6404,-4.0424],[39.5865,-4.0507],[39.5851,-4.0362],[39.5662,-4.0257],[39.559,-4.0418],[39.5685,-4.0262],[39.5782,-4.0315],[39.5812,-4.0429],[39.5665,-4.0485],[39.5749,-4.0685],[39.5882,-4.0676],[39.5754,-4.0868],[39.5932,-4.064],[39.6296,-4.0635],[39.6385,-4.051],[39.6443,-4.0724],[39.6771,-4.0826],[39.6757,-4.0938],[39.6143,-4.2032],[39.5396,-4.4379],[39.5246,-4.419],[39.5151,-4.4221],[39.5071,-4.4468],[39.5004,-4.4446],[39.5001,-4.4654],[39.4724,-4.5013],[39.4507,-4.5868],[39.436,-4.5899],[39.4271,-4.5599],[39.449,-4.5259],[39.4435,-4.5357],[39.4285,-4.5329],[39.4418,-4.5385],[39.4224,-4.5585],[39.4129,-4.5504],[39.4246,-4.5651],[39.4174,-4.5807],[39.4024,-4.5901],[39.3943,-4.5774],[39.3982,-4.619],[39.4135,-4.626],[39.3985,-4.649],[39.3054,-4.6388],[39.3049,-4.5968],[39.314,-4.5801],[39.2982,-4.5996],[39.2929,-4.5796],[39.2965,-4.5987],[39.2876,-4.6182],[39.2807,-4.6154],[39.2813,-4.5937],[39.2593,-4.5885],[39.2779,-4.6018],[39.2749,-4.6271],[39.2646,-4.6265],[39.2671,-4.6168],[39.2515,-4.624],[39.249,-4.6351],[39.2365,-4.6349],[39.2465,-4.6424],[39.226,-4.671],[39.2031,-4.662],[37.7958,-3.6793],[37.7477,-3.5451],[37.702,-3.5304],[37.6737,-3.509],[37.6265,-3.5308],[37.6136,-3.5273],[37.6047,-3.5064],[37.6271,-3.4672],[37.5927,-3.4646],[37.5931,-3.4445],[37.6662,-3.3644],[37.6904,-3.3555],[37.6914,-3.33],[37.7183,-3.3132],[37.6977,-3.1881],[37.828,-3.1784],[37.8429,-3.1884],[37.8565,-3.1853],[37.8636,-3.1701],[37.8608,-3.0888],[37.8787,-3.0856],[37.9045,-2.8935],[37.9254,-2.8747],[37.9467,-2.7793],[37.9776,-2.7894],[38.1565,-2.6956],[38.1687,-2.6991],[38.1744,-2.6911],[38.2649,-2.7571],[38.3341,-2.839],[38.3628,-2.8927],[38.3996,-2.9298],[38.4212,-2.9376],[38.4639,-2.9868],[38.543,-2.976],[38.6167,-2.9978],[38.6811,-3.036],[38.8161,-3.0585],[38.8315,-3.0463],[38.8515,-3.0524],[38.8777,-3.0374],[38.9674,-3.0312],[39.0205,-3.0137],[39.0842,-3.0395],[38.6313,-2.4205],[38.686,-2.4127],[38.7359,-2.37],[38.777,-2.3581],[38.7946,-2.338],[38.9278,-2.0783],[38.9245,-2.0699],[38.9991,-1.913],[38.9449,-1.7057],[38.9746,-1.688],[38.9833,-1.674],[38.9811,-1.6364],[38.99,-1.6361],[38.9836,-1.5441],[38.9754,-1.5419],[38.9499,-1.0549],[38.812,-0.76],[38.4059,-0.0602],[38.4426,-0.0775],[38.5026,-0.0546],[38.5496,-0.0129],[38.6151,-0.033],[38.6272,-0.046]]]]}},{"type":"Feature","id":3,"name":"Eastern","properties":{"cartodb_id":3,"id":3,"name":"Eastern","engtype_1":"Province","shape_leng":26.8000464225,"shape_area":12.7931839404},"geometry":{"type":"MultiPolygon","coordinates":[[[[36.4845,4.4594],[36.528,4.4518],[36.6463,4.4545],[36.6657,4.4403],[36.8644,4.4417],[36.9935,4.3839],[37.0419,4.3756],[37.0686,4.3454],[37.0905,4.3401],[37.1222,4.2981],[37.6347,3.9744],[37.6534,3.9491],[37.9626,3.7417],[38.0008,3.7339],[38.0414,3.6832],[38.1292,3.617],[38.1711,3.624],[38.447,3.6029],[38.5496,3.6334],[38.5893,3.6089],[38.609,3.6154],[38.6678,3.6008],[38.6858,3.624],[38.7203,3.578],[38.9156,3.5121],[38.9549,3.5152],[38.9691,3.534],[39.0177,3.5187],[39.1046,3.529],[39.1924,3.4828],[39.3148,3.4688],[39.3322,3.4394],[39.3716,3.0532],[39.3056,3.0109],[39.2693,2.9731],[39.1635,2.9357],[39.1441,2.8983],[39.1069,2.8779],[39.086,2.8464],[39.084,2.7527],[39.0703,2.686],[39.0286,2.6206],[39.009,2.5645],[38.9772,2.5518],[38.9089,2.552],[38.9269,2.4968],[38.9102,2.4892],[38.9045,2.464],[38.9096,2.4274],[38.9213,2.4274],[38.9513,2.3326],[38.9429,2.2458],[38.9485,2.1653],[38.9661,2.1323],[38.9993,2.0997],[38.965,2.0761],[38.9954,1.9879],[39.0675,1.8828],[39.1252,1.8328],[39.1529,1.7787],[39.171,1.7131],[39.2059,1.6654],[39.2909,1.6207],[39.3779,1.5263],[39.4266,1.4964],[39.2701,1.4415],[39.4459,0.9994],[39.4273,1.0084],[39.4329,0.985],[39.4587,0.9682],[39.4146,0.9697],[39.3063,0.907],[39.2323,0.8306],[39.1701,0.7184],[39.145,0.6915],[39.0756,0.6688],[39.0374,0.6674],[38.9992,0.6217],[38.932,0.6165],[38.9103,0.5953],[38.8507,0.582],[38.7858,0.5095],[38.7378,0.5159],[38.7219,0.5033],[38.6611,0.5048],[38.7037,0.431],[38.7166,0.3522],[38.7621,0.2094],[38.7606,0.164],[38.7388,0.0974],[38.7437,0.0133],[38.7654,-0.0474],[38.7478,-0.0493],[38.7484,-0.0625],[38.6767,-0.042],[38.6272,-0.046],[38.6151,-0.033],[38.5496,-0.0129],[38.5026,-0.0546],[38.4426,-0.0775],[38.4059,-0.0602],[38.812,-0.76],[38.9499,-1.0549],[38.9754,-1.5419],[38.9836,-1.5441],[38.99,-1.6361],[38.9811,-1.6364],[38.9833,-1.674],[38.9746,-1.688],[38.9449,-1.7057],[38.9991,-1.913],[38.9245,-2.0699],[38.9278,-2.0783],[38.7946,-2.338],[38.777,-2.3581],[38.7359,-2.37],[38.686,-2.4127],[38.6313,-2.4205],[39.0842,-3.0395],[39.0205,-3.0137],[38.9674,-3.0312],[38.8777,-3.0374],[38.8515,-3.0524],[38.8315,-3.0463],[38.8161,-3.0585],[38.6811,-3.036],[38.6167,-2.9978],[38.543,-2.976],[38.4639,-2.9868],[38.4212,-2.9376],[38.3996,-2.9298],[38.3628,-2.8927],[38.3341,-2.839],[38.281,-2.773],[38.1744,-2.6911],[38.1687,-2.6991],[38.1302,-2.7045],[37.9776,-2.7894],[37.9458,-2.7836],[37.93,-2.7611],[37.9317,-2.7186],[37.9038,-2.7062],[37.8997,-2.6831],[37.8458,-2.603],[37.6054,-2.3241],[37.6034,-2.3123],[37.6178,-2.3018],[37.6659,-2.2943],[37.6804,-2.2579],[37.6783,-2.2352],[37.7154,-2.1902],[37.7053,-2.1725],[37.6634,-2.1592],[37.607,-2.1593],[37.5714,-2.1309],[37.552,-2.1275],[37.5394,-2.1109],[37.4693,-2.0837],[37.3675,-2.02],[37.2946,-2.0092],[37.2648,-1.9673],[37.23,-1.9422],[37.1864,-1.9372],[37.1574,-1.9001],[37.1618,-1.8732],[37.1443,-1.847],[37.1569,-1.7919],[37.1437,-1.752],[37.1179,-1.7511],[36.9598,-1.5558],[36.9712,-1.4863],[36.9422,-1.4649],[36.9301,-1.4662],[36.8808,-1.498],[36.8879,-1.428],[36.9574,-1.4521],[36.9379,-1.415],[36.9172,-1.4038],[36.9003,-1.3734],[36.9374,-1.3353],[36.9816,-1.3227],[36.9721,-1.2965],[36.9934,-1.289],[37.0032,-1.3068],[37.0257,-1.2986],[37.073,-1.3083],[37.0795,-1.2931],[37.1034,-1.2807],[37.1075,-1.2516],[37.1521,-1.2279],[37.1576,-1.2018],[37.1834,-1.1714],[37.1745,-1.1187],[37.1891,-1.1005],[37.2261,-1.0811],[37.2943,-1.0774],[37.3437,-1.1223],[37.4162,-1.036],[37.453,-1.0129],[37.4382,-0.9761],[37.3995,-0.972],[37.3427,-0.924],[37.3241,-0.8918],[37.3151,-0.9184],[37.2785,-0.8941],[37.2542,-0.8638],[37.25,-0.8698],[37.2274,-0.854],[37.2347,-0.8397],[37.2596,-0.8404],[37.2742,-0.7618],[37.3124,-0.7533],[37.3225,-0.7675],[37.3478,-0.7756],[37.4709,-0.7278],[37.4941,-0.7335],[37.476,-0.7131],[37.4722,-0.6547],[37.4865,-0.6229],[37.4767,-0.6031],[37.4833,-0.5878],[37.4717,-0.5587],[37.449,-0.5487],[37.4284,-0.5135],[37.424,-0.4234],[37.3096,-0.1515],[37.1323,-0.0388],[37.0919,0.0277],[37.2255,0.0794],[37.2397,0.1138],[37.253,0.1094],[37.2658,0.1187],[37.3078,0.1761],[37.3394,0.1836],[37.3494,0.1988],[37.3679,0.2689],[37.3938,0.312],[37.3926,0.357],[37.3508,0.4193],[37.367,0.5154],[36.8591,0.5768],[36.8621,0.5953],[36.9054,0.6368],[36.9177,0.6682],[36.9232,0.7429],[36.938,0.759],[36.9479,0.7506],[36.979,0.7506],[37.0569,0.777],[37.0703,0.7713],[37.0744,0.784],[37.0988,0.7916],[37.1195,0.7891],[37.1354,0.7644],[37.1806,0.7438],[37.2226,0.7431],[37.2572,0.7682],[37.298,0.7294],[37.3683,0.5936],[37.4052,0.5811],[37.4489,0.5853],[37.4702,0.5975],[37.491,0.5917],[37.5073,0.5739],[37.5443,0.5838],[37.5751,0.5788],[37.5808,0.5905],[37.6271,0.6024],[37.6365,0.6235],[37.7055,0.6716],[37.7301,0.6643],[37.7435,0.6742],[37.7941,0.6761],[37.8305,0.6881],[37.8437,0.7179],[37.8781,0.7396],[37.9129,0.7157],[38.0122,0.795],[38.0481,0.7785],[38.0775,0.7839],[38.047,0.8037],[38.0432,0.8245],[38.0287,1.0789],[37.9499,1.1912],[37.9496,1.2444],[37.9697,1.2599],[37.9717,1.3833],[37.8974,1.4465],[37.8646,1.4083],[37.8183,1.4081],[37.6747,1.3748],[37.597,1.346],[37.3951,1.7104],[37.3425,1.7407],[37.3034,1.7773],[37.2877,1.8299],[37.2256,1.8761],[37.214,1.9035],[37.1566,1.9241],[37.1523,1.9782],[37.0175,2.0003],[36.946,2.0373],[36.927,2.1123],[36.9269,2.1589],[36.9097,2.2026],[36.8558,2.2835],[36.7992,2.4627],[36.7759,2.5109],[36.7358,2.4921],[36.7153,2.4434],[36.6979,2.4673],[36.6762,2.4552],[36.6452,2.4051],[36.6255,2.422],[36.6227,2.4085],[36.6044,2.4077],[36.6031,2.3927],[36.5966,2.4178],[36.5573,2.411],[36.541,2.4621],[36.5469,2.5304],[36.4575,2.6387],[36.4373,2.7304],[36.384,2.8467],[36.296,2.9035],[36.2693,2.9408],[36.2328,2.9598],[36.1462,2.9633],[36.1294,2.9924],[36.1356,3.089],[36.1445,3.0943],[36.1419,3.158],[36.1335,3.1685],[36.142,3.2],[36.1004,3.2079],[36.0621,3.2333],[36.0506,3.2557],[36.0818,3.2978],[36.1046,3.3675],[36.1003,3.4652],[36.1098,3.6046],[36.1011,3.6744],[36.1199,3.8557],[36.1072,4.093],[36.1132,4.4558],[36.4431,4.4666],[36.4845,4.4594]]]]}},{"type":"Feature","id":5,"name":"North-Eastern","properties":{"cartodb_id":5,"id":5,"name":"North-Eastern","engtype_1":"Province","shape_leng":18.7647224256,"shape_area":10.2594623549},"geometry":{"type":"MultiPolygon","coordinates":[[[[41.0231,4.0766],[41.0727,4.0226],[41.0919,4.0133],[41.1021,3.9913],[41.0994,3.9712],[41.1195,3.9673],[41.1302,3.9489],[41.1838,3.9206],[41.223,3.9388],[41.3277,3.9263],[41.3443,3.9385],[41.3795,3.9436],[41.4101,3.931],[41.4778,3.9455],[41.5014,3.9365],[41.5172,3.9584],[41.5372,3.9663],[41.5533,3.9525],[41.6165,3.9663],[41.6332,3.9512],[41.6557,3.9468],[41.7037,3.9719],[41.7382,3.957],[41.7683,3.9621],[41.7845,3.9389],[41.8236,3.9274],[41.8875,3.9583],[41.3281,3.1586],[40.9866,2.8194],[40.9869,2.2289],[40.9785,2.1804],[40.9938,1.8239],[40.9887,0.4485],[40.999,0.4058],[40.9886,0.014],[41.0005,0],[41.0043,-0.8236],[41.5774,-1.5848],[41.5754,-1.6426],[41.1726,-1.6843],[41.1726,-1.6703],[40.9913,-1.6875],[40.9854,-1.6994],[40.9179,-1.7119],[40.5126,-1.9032],[40.4982,-1.8852],[40.4789,-1.8921],[40.1972,-2.0363],[40.1784,-1.9981],[40.183,-1.9815],[40.17,-1.9475],[40.1717,-1.8705],[40.1414,-1.7821],[40.153,-1.7266],[40.1411,-1.7027],[40.138,-1.599],[40.1109,-1.5694],[40.0856,-1.5093],[40.0753,-1.498],[40.0636,-1.5],[40.0491,-1.424],[40.06,-1.4196],[40.0307,-1.3195],[40.0365,-1.2601],[40.0267,-1.2603],[40.0008,-1.1979],[40.0127,-1.1906],[39.9832,-1.1317],[39.9626,-1.1125],[39.9253,-1.0256],[39.9053,-1.0132],[39.9002,-0.9672],[39.9165,-0.9584],[39.8902,-0.9058],[39.8844,-0.8479],[39.83,-0.6796],[39.8087,-0.64],[39.7865,-0.6443],[39.7716,-0.6151],[39.7087,-0.591],[39.7265,-0.5639],[39.7163,-0.5633],[39.7027,-0.5378],[39.6788,-0.5523],[39.6709,-0.5471],[39.6416,-0.5021],[39.6388,-0.4634],[39.6206,-0.4366],[39.6024,-0.3554],[39.5864,-0.3425],[39.6037,-0.3254],[39.4688,-0.196],[39.4349,-0.1719],[39.3966,-0.1661],[39.3112,-0.1149],[39.2781,-0.1169],[39.2758,-0.1431],[39.261,-0.1476],[39.2368,-0.1425],[39.2361,-0.115],[39.1655,-0.1107],[39.1771,-0.1268],[39.16,-0.1392],[39.1367,-0.1273],[39.0835,-0.0631],[39.0644,-0.0565],[39.0139,-0.0636],[38.9736,-0.0936],[38.925,-0.1011],[38.8997,-0.0669],[38.857,-0.069],[38.7654,-0.0474],[38.7437,0.0133],[38.7388,0.0974],[38.7606,0.164],[38.7621,0.2094],[38.7166,0.3522],[38.7037,0.431],[38.6611,0.5048],[38.7219,0.5033],[38.7378,0.5159],[38.7858,0.5095],[38.8507,0.582],[38.9103,0.5953],[38.932,0.6165],[38.9992,0.6217],[39.0374,0.6674],[39.0756,0.6688],[39.145,0.6915],[39.1701,0.7184],[39.2323,0.8306],[39.3063,0.907],[39.4146,0.9697],[39.4587,0.9682],[39.4329,0.985],[39.4273,1.0084],[39.4459,0.9994],[39.2701,1.4415],[39.4266,1.4964],[39.3779,1.5263],[39.2909,1.6207],[39.2059,1.6654],[39.171,1.7131],[39.1529,1.7787],[39.1252,1.8328],[39.0675,1.8828],[38.9954,1.9879],[38.965,2.0761],[38.9993,2.0997],[38.9661,2.1323],[38.9485,2.1653],[38.9429,2.2458],[38.9513,2.3326],[38.9213,2.4274],[38.9096,2.4274],[38.9051,2.4785],[38.9269,2.4968],[38.9089,2.552],[38.9772,2.5518],[39.009,2.5645],[39.0286,2.6206],[39.0703,2.686],[39.084,2.7527],[39.086,2.8464],[39.1069,2.8779],[39.1441,2.8983],[39.1635,2.9357],[39.2693,2.9731],[39.3056,3.0109],[39.3716,3.0532],[39.3525,3.2867],[39.3348,3.3889],[39.4224,3.3764],[39.4567,3.3856],[39.4712,3.3285],[39.5083,3.3221],[39.5377,3.4034],[39.5621,3.4163],[39.7095,3.5871],[39.7994,3.6732],[39.8856,3.8596],[40.183,4.015],[40.7152,4.2355],[40.7152,4.2477],[40.7749,4.2819],[40.8441,4.2463],[40.8558,4.2267],[40.8824,4.2128],[40.9048,4.154],[40.9651,4.1321],[41.0231,4.0766]]]]}},{"type":"Feature","id":6,"name":"Nyanza","properties":{"cartodb_id":6,"id":6,"name":"Nyanza","engtype_1":"Province","shape_leng":7.05417499541,"shape_area":1.31602235707},"geometry":{"type":"MultiPolygon","coordinates":[[[[34.2606,0.3112],[34.3772,0.3063],[34.4,0.2577],[34.3956,0.2333],[34.3819,0.2282],[34.3902,0.2136],[34.3834,0.181],[34.4274,0.2142],[34.4433,0.2159],[34.4243,0.1833],[34.437,0.1653],[34.4242,0.1545],[34.4295,0.1478],[34.4773,0.1549],[34.4794,0.1362],[34.4552,0.1278],[34.4741,0.1163],[34.4717,0.1034],[34.493,0.1014],[34.497,0.1262],[34.507,0.1186],[34.5341,0.1378],[34.5514,0.1287],[34.5583,0.0496],[34.5325,0.0035],[34.5407,-0.0026],[34.5333,-0.0138],[34.549,-0.0227],[34.5621,-0.0184],[34.5639,-0.0419],[34.5825,-0.0319],[34.5884,0.0029],[34.6009,0.0129],[34.6109,-0.0001],[34.671,-0.0151],[34.6899,-0.0116],[34.6873,-0.0231],[34.7239,-0.0028],[34.7521,-0.0314],[34.8273,0.0262],[34.8075,-0.0058],[34.8074,-0.0215],[34.9215,-0.0241],[34.9177,-0.0326],[34.9296,-0.0344],[34.9913,-0.0196],[35.0086,-0.0267],[35.0077,-0.0523],[35.0585,-0.0524],[35.0642,-0.0652],[35.0917,-0.0384],[35.1012,-0.0017],[35.15,-0.0357],[35.1913,-0.0239],[35.2118,-0.0296],[35.2266,-0.0672],[35.2252,-0.1101],[35.2544,-0.1221],[35.2711,-0.1546],[35.2786,-0.1461],[35.2962,-0.1739],[35.3312,-0.18],[35.3426,-0.2381],[35.317,-0.2493],[35.2629,-0.2327],[35.2625,-0.2219],[35.2325,-0.1932],[35.2178,-0.1941],[35.2144,-0.174],[35.1981,-0.1634],[35.1566,-0.1655],[35.1262,-0.1564],[35.1021,-0.2007],[35.0619,-0.2169],[35.0483,-0.2997],[35.0082,-0.3335],[35.0098,-0.3936],[35.0442,-0.4467],[35.0335,-0.4967],[35.0493,-0.4979],[35.0546,-0.5077],[35.052,-0.5759],[35.0662,-0.6063],[35.055,-0.6494],[35.0706,-0.6934],[35.0506,-0.7061],[35.0924,-0.7993],[35.0452,-0.8568],[35.0199,-0.8535],[35.0243,-0.8774],[35.0116,-0.8857],[35.017,-0.895],[34.6732,-0.9781],[34.6398,-0.9715],[34.5907,-1.0214],[34.5979,-1.0585],[34.6163,-1.0781],[34.6303,-1.1358],[34.6269,-1.1605],[34.6702,-1.2161],[34.6871,-1.2221],[34.7243,-1.3902],[34.7012,-1.3768],[34.7047,-1.3652],[34.6028,-1.3079],[34.5923,-1.3155],[34.5805,-1.3088],[34.5802,-1.2958],[34.5642,-1.2866],[34.5652,-1.3002],[34.4968,-1.2613],[34.5006,-1.2491],[34.4506,-1.221],[34.4457,-1.2321],[34.3733,-1.1909],[34.3802,-1.1815],[34.2567,-1.1099],[34.2272,-1.0953],[34.2235,-1.1075],[34.1909,-1.0894],[34.1932,-1.0751],[34.1807,-1.0679],[34.169,-1.0628],[34.1684,-1.076],[34.0775,-1.0262],[34.041,-1.0492],[34.0165,-1.004],[33.9312,-1.0042],[33.9309,-0.9932],[33.9457,-0.993],[33.9286,-0.5371],[33.987,-0.1285],[33.9513,-0.0267],[34.0137,-0.028],[34.0423,0.0021],[34.0712,0.1201],[34.0984,0.135],[34.1013,0.1253],[34.1122,0.1441],[34.1031,0.1866],[34.1146,0.2408],[34.1369,0.2596],[34.1582,0.2985],[34.1723,0.2979],[34.202,0.264],[34.2022,0.2886],[34.2324,0.2934],[34.2467,0.3149],[34.2606,0.3112]]]]}},{"type":"Feature","id":1,"name":"Central","properties":{"cartodb_id":1,"id":1,"name":"Central","engtype_1":"Province","shape_leng":6.82116244218,"shape_area":1.08103521498},"geometry":{"type":"MultiPolygon","coordinates":[[[[36.4837,0.1133],[36.5141,0.0792],[36.5219,0.0512],[36.5769,0.0707],[36.6053,0.0059],[36.6249,0.0153],[36.6385,0.0059],[36.6453,-0.0117],[36.5935,-0.0162],[36.5614,-0.044],[36.5511,-0.068],[36.5713,-0.1036],[36.6333,-0.1065],[36.6534,-0.1484],[36.7617,-0.1046],[36.8281,-0.0958],[36.8308,-0.1276],[36.8543,-0.1347],[36.8687,-0.1664],[36.8588,-0.1839],[36.8405,-0.1898],[36.8583,-0.2547],[36.8698,-0.2472],[36.9871,-0.2933],[36.998,-0.2718],[36.9929,-0.2532],[37.0153,-0.2268],[37.0257,-0.1653],[36.9854,-0.1346],[36.9788,-0.0723],[37.0243,-0.0503],[37.0246,-0.0399],[37.077,0.0185],[37.0868,-0.0044],[37.1129,-0.0162],[37.1323,-0.0388],[37.3096,-0.1515],[37.424,-0.4234],[37.4284,-0.5135],[37.449,-0.5487],[37.4717,-0.5587],[37.4833,-0.5878],[37.4767,-0.6031],[37.4865,-0.6229],[37.4722,-0.6547],[37.476,-0.7131],[37.4941,-0.7335],[37.4709,-0.7278],[37.3478,-0.7756],[37.3225,-0.7675],[37.3124,-0.7533],[37.2779,-0.7594],[37.2624,-0.7966],[37.2596,-0.8404],[37.2347,-0.8397],[37.2274,-0.854],[37.25,-0.8698],[37.2542,-0.8638],[37.2785,-0.8941],[37.3151,-0.9184],[37.3241,-0.8918],[37.3427,-0.924],[37.3995,-0.972],[37.4382,-0.9761],[37.453,-1.0129],[37.4162,-1.036],[37.3437,-1.1223],[37.2943,-1.0774],[37.2067,-1.0873],[37.1745,-1.1187],[37.1834,-1.1714],[37.1576,-1.2018],[37.1523,-1.2276],[37.12,-1.2404],[37.103,-1.2642],[37.0887,-1.2544],[37.0976,-1.2502],[37.0806,-1.2389],[37.064,-1.2091],[37.0051,-1.2414],[36.9844,-1.2273],[36.9522,-1.2332],[36.9196,-1.2233],[36.9087,-1.212],[36.9393,-1.1786],[36.8997,-1.1633],[36.8846,-1.1774],[36.893,-1.1947],[36.8598,-1.193],[36.8435,-1.2186],[36.7875,-1.1964],[36.7863,-1.2132],[36.7721,-1.2285],[36.7531,-1.2227],[36.7374,-1.2403],[36.7271,-1.2386],[36.7101,-1.2659],[36.6818,-1.2752],[36.6777,-1.303],[36.6536,-1.318],[36.4855,-1.284],[36.5047,-1.2616],[36.5416,-1.129],[36.5699,-1.1039],[36.5915,-1.0648],[36.5944,-0.9872],[36.5782,-0.9468],[36.5821,-0.9287],[36.5527,-0.9239],[36.5463,-0.9113],[36.5617,-0.8408],[36.523,-0.714],[36.5432,-0.6968],[36.5115,-0.6105],[36.5049,-0.6214],[36.4688,-0.6263],[36.4559,-0.6118],[36.4506,-0.5743],[36.4088,-0.5806],[36.4024,-0.57],[36.4032,-0.5214],[36.3832,-0.4193],[36.359,-0.3801],[36.3329,-0.3886],[36.3002,-0.3781],[36.2781,-0.3973],[36.2595,-0.3475],[36.2255,-0.3535],[36.2148,-0.2763],[36.2431,-0.2554],[36.2084,-0.1787],[36.2001,-0.1364],[36.2262,-0.1089],[36.2447,-0.1157],[36.2547,-0.0302],[36.2755,0.0083],[36.333,0.028],[36.3485,0.0167],[36.3974,0.0414],[36.4192,0.0413],[36.4247,0.0456],[36.4008,0.0578],[36.423,0.0843],[36.4837,0.1133]]]]}},{"type":"Feature","id":4,"name":"Nairobi","properties":{"cartodb_id":4,"id":4,"name":"Nairobi","engtype_1":"National Capital Area","shape_leng":1.57477118638,"shape_area":0.0598740645},"geometry":{"type":"MultiPolygon","coordinates":[[[[36.9052,-1.1649],[36.9393,-1.1786],[36.9087,-1.212],[36.9173,-1.2221],[36.9522,-1.2332],[36.9844,-1.2273],[37.0051,-1.2414],[37.064,-1.2091],[37.1058,-1.2706],[37.073,-1.3083],[37.0257,-1.2986],[37.0032,-1.3068],[36.9934,-1.289],[36.9721,-1.2965],[36.9816,-1.3227],[36.9374,-1.3353],[36.9003,-1.3734],[36.9172,-1.4038],[36.9379,-1.415],[36.9574,-1.4521],[36.8877,-1.4279],[36.8257,-1.3937],[36.7757,-1.3983],[36.7325,-1.3892],[36.6491,-1.3263],[36.6568,-1.3111],[36.6777,-1.303],[36.6818,-1.2752],[36.7101,-1.2659],[36.715,-1.2507],[36.7531,-1.2227],[36.7721,-1.2285],[36.7863,-1.2132],[36.7875,-1.1964],[36.8435,-1.2186],[36.8598,-1.193],[36.893,-1.1947],[36.8846,-1.1774],[36.9052,-1.1649]]]]}},{"type":"Feature","id":7,"name":"Rift Valley","properties":{"cartodb_id":7,"id":7,"name":"Rift Valley","engtype_1":"Province","shape_leng":31.4224135888,"shape_area":14.2905181152},"geometry":{"type":"MultiPolygon","coordinates":[[[[35.9614,4.6244],[35.9553,4.6051],[35.9817,4.5865],[35.9774,4.5733],[35.9612,4.5663],[36.0556,4.4892],[36.0555,4.4696],[36.1148,4.4596],[36.1072,4.093],[36.1199,3.8557],[36.1011,3.6744],[36.1098,3.6046],[36.1003,3.4652],[36.1046,3.3675],[36.0818,3.2978],[36.0506,3.2557],[36.0621,3.2333],[36.1004,3.2079],[36.142,3.2],[36.1335,3.1685],[36.1419,3.158],[36.1445,3.0943],[36.1356,3.089],[36.1288,3.0198],[36.1294,2.9924],[36.1462,2.9633],[36.2328,2.9598],[36.2693,2.9408],[36.296,2.9035],[36.3346,2.8744],[36.384,2.8467],[36.4373,2.7304],[36.4575,2.6387],[36.5469,2.5304],[36.541,2.4621],[36.5573,2.411],[36.5966,2.4178],[36.6031,2.3927],[36.6044,2.4077],[36.6227,2.4085],[36.6255,2.422],[36.6452,2.4051],[36.6762,2.4552],[36.6979,2.4673],[36.7153,2.4434],[36.7358,2.4921],[36.7759,2.5109],[36.7992,2.4627],[36.8558,2.2835],[36.9097,2.2026],[36.9269,2.1589],[36.927,2.1123],[36.946,2.0373],[37.0175,2.0003],[37.1523,1.9782],[37.1566,1.9241],[37.214,1.9035],[37.2256,1.8761],[37.2877,1.8299],[37.3034,1.7773],[37.3425,1.7407],[37.3951,1.7104],[37.597,1.346],[37.6747,1.3748],[37.8183,1.4081],[37.8646,1.4083],[37.8974,1.4465],[37.9717,1.3833],[37.9697,1.2599],[37.9496,1.2444],[37.9499,1.1912],[38.0287,1.0789],[38.0432,0.8245],[38.047,0.8037],[38.0766,0.7827],[38.0481,0.7785],[38.0122,0.795],[37.9129,0.7157],[37.8781,0.7396],[37.8437,0.7179],[37.8305,0.6881],[37.7941,0.6761],[37.7435,0.6742],[37.7301,0.6643],[37.7055,0.6716],[37.6365,0.6235],[37.6271,0.6024],[37.5808,0.5905],[37.5751,0.5788],[37.5443,0.5838],[37.5073,0.5739],[37.491,0.5917],[37.4702,0.5975],[37.4489,0.5853],[37.4052,0.5811],[37.3683,0.5936],[37.298,0.7294],[37.2572,0.7682],[37.2226,0.7431],[37.1806,0.7438],[37.1354,0.7644],[37.1195,0.7891],[37.0988,0.7916],[37.0744,0.784],[37.0703,0.7713],[37.0569,0.777],[36.979,0.7506],[36.9479,0.7506],[36.938,0.759],[36.9232,0.7429],[36.9177,0.6682],[36.9054,0.6368],[36.8621,0.5953],[36.8591,0.5768],[37.367,0.5154],[37.3508,0.4193],[37.3926,0.357],[37.3888,0.2957],[37.3679,0.2689],[37.3394,0.1836],[37.3107,0.1784],[37.2804,0.1312],[37.253,0.1094],[37.2397,0.1138],[37.2255,0.0794],[37.0919,0.0277],[37.1192,-0.0082],[37.1162,-0.0192],[37.0868,-0.0044],[37.077,0.0185],[37.0246,-0.0399],[37.0243,-0.0503],[36.9788,-0.0723],[36.9854,-0.1346],[37.0257,-0.1653],[37.0153,-0.2268],[36.9929,-0.2532],[36.998,-0.2718],[36.9871,-0.2933],[36.8698,-0.2472],[36.8583,-0.2547],[36.8405,-0.1898],[36.8588,-0.1839],[36.8687,-0.1664],[36.8543,-0.1347],[36.8308,-0.1276],[36.8281,-0.0958],[36.7617,-0.1046],[36.6534,-0.1484],[36.6333,-0.1065],[36.5713,-0.1036],[36.5511,-0.068],[36.5614,-0.044],[36.5935,-0.0162],[36.6453,-0.0117],[36.6385,0.0059],[36.6249,0.0153],[36.6053,0.0059],[36.5769,0.0707],[36.5219,0.0512],[36.5141,0.0792],[36.4837,0.1133],[36.423,0.0843],[36.4008,0.0578],[36.4247,0.0456],[36.4192,0.0413],[36.3974,0.0414],[36.3485,0.0167],[36.333,0.028],[36.2755,0.0083],[36.2547,-0.0302],[36.2447,-0.1157],[36.2262,-0.1089],[36.2001,-0.1364],[36.2084,-0.1787],[36.2431,-0.2554],[36.2148,-0.2763],[36.2255,-0.3535],[36.2595,-0.3475],[36.2781,-0.3973],[36.3002,-0.3781],[36.3329,-0.3886],[36.359,-0.3801],[36.3832,-0.4193],[36.4032,-0.5214],[36.4024,-0.57],[36.4088,-0.5806],[36.4506,-0.5743],[36.4559,-0.6118],[36.4688,-0.6263],[36.5049,-0.6214],[36.5115,-0.6105],[36.5432,-0.6968],[36.523,-0.714],[36.5617,-0.8408],[36.5463,-0.9113],[36.5527,-0.9239],[36.5821,-0.9287],[36.5782,-0.9468],[36.5944,-0.9872],[36.5915,-1.0648],[36.5699,-1.1039],[36.5416,-1.129],[36.5047,-1.2616],[36.4855,-1.284],[36.6536,-1.318],[36.655,-1.3324],[36.7325,-1.3892],[36.7757,-1.3983],[36.8257,-1.3937],[36.8835,-1.4189],[36.8808,-1.498],[36.9301,-1.4662],[36.9422,-1.4649],[36.9712,-1.4863],[36.9598,-1.5558],[37.1179,-1.7511],[37.1437,-1.752],[37.1569,-1.7919],[37.1443,-1.847],[37.1618,-1.8732],[37.1574,-1.9001],[37.1864,-1.9372],[37.23,-1.9422],[37.2648,-1.9673],[37.2946,-2.0092],[37.3675,-2.02],[37.4693,-2.0837],[37.5394,-2.1109],[37.552,-2.1275],[37.5714,-2.1309],[37.607,-2.1593],[37.6787,-2.1621],[37.7106,-2.1813],[37.7139,-2.1927],[37.6783,-2.2352],[37.6804,-2.2579],[37.6659,-2.2943],[37.6178,-2.3018],[37.6034,-2.3123],[37.6054,-2.3241],[37.8458,-2.603],[37.8997,-2.6831],[37.9038,-2.7062],[37.9317,-2.7186],[37.93,-2.7611],[37.9458,-2.7836],[37.9254,-2.8747],[37.9045,-2.8935],[37.882,-3.0713],[37.8787,-3.0856],[37.8608,-3.0888],[37.8636,-3.1701],[37.8535,-3.1874],[37.828,-3.1784],[37.6965,-3.1881],[37.6768,-3.0707],[37.6161,-3.0268],[37.6299,-3.0232],[37.5821,-2.9894],[37.4917,-2.9316],[37.4817,-2.9434],[37.4659,-2.9354],[37.4716,-2.9204],[37.4578,-2.911],[37.4124,-2.8881],[37.4003,-2.8998],[37.3132,-2.8526],[37.3186,-2.8454],[37.3322,-2.8528],[37.3406,-2.8474],[36.1064,-2.1552],[36.1011,-2.1857],[35.9956,-2.1289],[36.0013,-2.0968],[35.9527,-2.0675],[35.3168,-1.7116],[35.3177,-1.7288],[35.1784,-1.6486],[35.1886,-1.6399],[34.8217,-1.432],[34.7889,-1.4144],[34.7816,-1.4249],[34.7249,-1.3931],[34.6871,-1.2221],[34.6702,-1.2161],[34.6269,-1.1605],[34.6303,-1.1358],[34.6163,-1.0781],[34.5904,-1.035],[34.5907,-1.0214],[34.6398,-0.9715],[34.6732,-0.9781],[35.017,-0.895],[35.0116,-0.8857],[35.0243,-0.8774],[35.0199,-0.8535],[35.0452,-0.8568],[35.0904,-0.8043],[35.0506,-0.7061],[35.0706,-0.6934],[35.055,-0.6494],[35.0662,-0.6063],[35.052,-0.5759],[35.0546,-0.5077],[35.0493,-0.4979],[35.0335,-0.4967],[35.0442,-0.4467],[35.0062,-0.3752],[35.0082,-0.3335],[35.0483,-0.2997],[35.0637,-0.2148],[35.1021,-0.2007],[35.1262,-0.1564],[35.1566,-0.1655],[35.1854,-0.1599],[35.2144,-0.174],[35.2178,-0.1941],[35.2341,-0.1943],[35.2667,-0.2355],[35.317,-0.2493],[35.3426,-0.2381],[35.3299,-0.1769],[35.2962,-0.1739],[35.2786,-0.1461],[35.2711,-0.1546],[35.2544,-0.1221],[35.2252,-0.1101],[35.2213,-0.042],[35.206,-0.0272],[35.15,-0.0357],[35.1012,-0.0017],[35.0917,-0.0384],[35.0642,-0.0652],[35.0585,-0.0524],[35.0077,-0.0523],[35.0086,-0.0267],[34.9913,-0.0196],[34.9296,-0.0344],[34.9177,-0.0326],[34.9215,-0.0241],[34.8074,-0.0215],[34.8075,-0.0058],[34.8273,0.0262],[34.7521,-0.0314],[34.7371,0.0018],[34.7566,0.0117],[34.7641,0.0019],[34.8149,0.0356],[34.8344,0.0327],[34.8589,0.0864],[34.8577,0.1215],[34.8895,0.1493],[34.9136,0.1575],[34.9296,0.2088],[34.9418,0.2095],[34.9554,0.2415],[34.9778,0.2425],[34.9413,0.3245],[34.937,0.3597],[34.9467,0.3541],[34.9538,0.3694],[34.9565,0.4144],[34.9065,0.5062],[34.8524,0.5505],[34.8945,0.6084],[34.9231,0.5911],[35.0017,0.6377],[35.0274,0.6163],[35.0395,0.6402],[35.0867,0.6307],[35.1564,0.6611],[35.1478,0.828],[35.1356,0.8354],[35.1234,0.8306],[35.1132,0.8902],[35.099,0.8818],[35.0813,0.8865],[35.0723,0.9001],[35.0393,0.9035],[34.9407,0.8734],[34.9312,0.8569],[34.8092,0.8094],[34.8095,0.835],[34.7883,0.8963],[34.8002,0.9135],[34.7885,0.9265],[34.7696,0.9256],[34.737,0.9461],[34.6521,1.0596],[34.664,1.0864],[34.6287,1.0997],[34.5848,1.1518],[34.6488,1.1792],[34.6695,1.2082],[34.8052,1.2307],[34.8313,1.2708],[34.83,1.3038],[34.7867,1.3664],[34.8065,1.384],[34.7942,1.4147],[34.8442,1.4572],[34.864,1.5285],[34.8902,1.5554],[34.9066,1.5532],[34.9436,1.5768],[34.9912,1.6645],[35.0003,1.7587],[35.0002,1.9626],[34.9845,1.9853],[34.9797,2.0539],[34.9143,2.4032],[34.9166,2.4249],[34.9539,2.4581],[34.9544,2.4726],[34.933,2.5162],[34.913,2.5168],[34.8938,2.5931],[34.8805,2.5897],[34.8783,2.5726],[34.8682,2.5708],[34.7992,2.6561],[34.7754,2.6981],[34.7841,2.7488],[34.7753,2.788],[34.7363,2.8552],[34.7017,2.8779],[34.6924,2.8631],[34.6529,2.8678],[34.6393,2.907],[34.599,2.9249],[34.5874,3.0041],[34.5765,3.0208],[34.5723,3.0917],[34.5458,3.1368],[34.512,3.1491],[34.4948,3.1416],[34.482,3.1654],[34.4558,3.1823],[34.4474,3.2833],[34.4299,3.343],[34.4006,3.3709],[34.4017,3.4154],[34.4193,3.4337],[34.4166,3.451],[34.3889,3.4921],[34.4247,3.492],[34.4515,3.5175],[34.4632,3.6698],[34.4049,3.6931],[34.3942,3.7181],[34.365,3.7355],[34.331,3.7334],[34.3079,3.7117],[34.2664,3.7486],[34.2456,3.7842],[34.229,3.7745],[34.2203,3.7845],[34.1709,3.7681],[34.1661,3.7739],[34.1901,3.7832],[34.1886,3.7955],[34.1537,3.8003],[34.1532,3.8073],[34.18,3.8319],[34.226,3.8314],[34.2156,3.8812],[34.0884,3.8616],[34.0914,3.8856],[34.1199,3.9012],[34.1346,3.9617],[34.06,4.0099],[34.0588,4.0281],[34.0876,4.037],[34.0916,4.0617],[34.0495,4.1215],[34.0657,4.1444],[34.0474,4.1795],[34.002,4.2214],[34.3785,4.6113],[35.704,4.6228],[35.9437,4.6338],[35.9632,4.632],[35.9614,4.6244]]]]}},{"type":"Feature","id":8,"name":"Western","properties":{"cartodb_id":8,"id":8,"engtype_1":"Province","shape_leng":6.13568710632,"shape_area":0.68412653462},"geometry":{"type":"MultiPolygon","coordinates":[[[[34.5848,1.1518],[34.6287,1.0997],[34.664,1.0864],[34.6521,1.0596],[34.737,0.9461],[34.7696,0.9256],[34.7885,0.9265],[34.8002,0.9135],[34.7883,0.8963],[34.8095,0.835],[34.8092,0.8094],[34.9312,0.8569],[34.9407,0.8734],[35.0483,0.9043],[35.099,0.8818],[35.1132,0.8902],[35.1234,0.8306],[35.1356,0.8354],[35.1478,0.828],[35.1564,0.6611],[35.0867,0.6307],[35.0395,0.6402],[35.0274,0.6163],[35.0017,0.6377],[34.9231,0.5911],[34.8945,0.6084],[34.8524,0.5505],[34.9065,0.5062],[34.9565,0.4144],[34.9538,0.3694],[34.9467,0.3541],[34.937,0.3597],[34.9413,0.3245],[34.9778,0.2425],[34.9554,0.2415],[34.9418,0.2095],[34.9296,0.2088],[34.9136,0.1575],[34.8895,0.1493],[34.8577,0.1215],[34.8589,0.0864],[34.8344,0.0327],[34.8149,0.0356],[34.7641,0.0019],[34.7566,0.0117],[34.7395,0.0065],[34.7439,-0.0197],[34.7239,-0.0028],[34.6873,-0.0231],[34.6899,-0.0116],[34.671,-0.0151],[34.6109,-0.0001],[34.6009,0.0129],[34.5884,0.0029],[34.5825,-0.0319],[34.5639,-0.0419],[34.5621,-0.0184],[34.549,-0.0227],[34.5333,-0.0138],[34.5407,-0.0026],[34.5325,0.0035],[34.5583,0.0496],[34.5514,0.1287],[34.5341,0.1378],[34.507,0.1186],[34.497,0.1262],[34.493,0.1014],[34.4717,0.1034],[34.4741,0.1163],[34.4552,0.1278],[34.4794,0.1362],[34.4773,0.1549],[34.4295,0.1478],[34.4242,0.1545],[34.437,0.1653],[34.4243,0.1833],[34.4448,0.2078],[34.4412,0.2177],[34.3834,0.181],[34.3902,0.2136],[34.3819,0.2282],[34.3956,0.2333],[34.4,0.2577],[34.3772,0.3063],[34.2467,0.3149],[34.2324,0.2934],[34.2022,0.2886],[34.202,0.264],[34.1611,0.3013],[34.1369,0.2596],[34.1146,0.2408],[34.1031,0.1866],[34.1122,0.1441],[34.1013,0.1253],[34.0984,0.135],[34.0712,0.1201],[34.0423,0.0021],[34.0137,-0.028],[33.9513,-0.0267],[33.9101,0.1067],[34.0249,0.2684],[34.041,0.2766],[34.0504,0.3087],[34.0604,0.3135],[34.0562,0.3238],[34.0718,0.3252],[34.0989,0.3498],[34.1086,0.3809],[34.09,0.427],[34.0882,0.4567],[34.1195,0.4834],[34.123,0.5173],[34.116,0.5231],[34.1376,0.5857],[34.1857,0.6068],[34.1996,0.6287],[34.2354,0.6283],[34.2768,0.643],[34.2778,0.6816],[34.3136,0.7008],[34.3109,0.7489],[34.2983,0.7611],[34.361,0.777],[34.385,0.8037],[34.4133,0.8104],[34.4055,0.8287],[34.4205,0.8501],[34.4461,0.8635],[34.4505,0.9004],[34.4791,0.9376],[34.5025,1.0706],[34.5265,1.1071],[34.5744,1.1023],[34.5848,1.1518]]]]}}]}